[{"OBJECT_NAME":"TYCHE","OBJECT_ID":"2024-149AE","EPOCH":"2026-03-09T21:56:23.347104","MEAN_MOTION":15.258912,"ECCENTRICITY":0.00028588,"INCLINATION":97.3802,"RA_OF_ASC_NODE":148.0484,"ARG_OF_PERICENTER":233.085,"MEAN_ANOMALY":127.0127,"EPHEMERIS_TYPE":0,"CLASSIFICATION_TYPE":"U","NORAD_CAT_ID":60496,"ELEMENT_SET_NO":999,"REV_AT_EPOCH":8676,"BSTAR":0.00024931274,"MEAN_MOTION_DOT":6.318e-5,"MEAN_MOTION_DDOT":0},{"OBJECT_NAME":"CZ-2C DEB","OBJECT_ID":"2011-030E","EPOCH":"2026-03-09T22:02:28.057920","MEAN_MOTION":15.23147202,"ECCENTRICITY":0.00216086,"INCLINATION":98.1958,"RA_OF_ASC_NODE":48.5667,"ARG_OF_PERICENTER":313.6999,"MEAN_ANOMALY":74.4133,"EPHEMERIS_TYPE":0,"CLASSIFICATION_TYPE":"U","NORAD_CAT_ID":37734,"ELEMENT_SET_NO":999,"REV_AT_EPOCH":78227,"BSTAR":0.0029824689,"MEAN_MOTION_DOT":0.00071429,"MEAN_MOTION_DDOT":0}]
